{"type": "FeatureCollection", "features": [ {"type": "Feature", "properties": {"norad_id": 33867, "name": "IRIDIUM 33 DEB", "group": "iridium-33-debris", "lat": -24.502791049893275, "lon": 172.36888948539146, "alt_km": 381.9011995139572, "timestamp": "2025-12-11T13:55:02.550652+00:00", "meta": {"OBJECT_NAME": "IRIDIUM 33 DEB", "OBJECT_ID": "1997-051AL", "EPOCH": "2025-12-11T00:46:09.488064", "MEAN_MOTION": 15.6435787, "ECCENTRICITY": 0.00132058, "INCLINATION": 86.364, "RA_OF_ASC_NODE": 350.9911, "ARG_OF_PERICENTER": 90.6503, "MEAN_ANOMALY": 269.6278, "EPHEMERIS_TYPE": 0, "CLASSIFICATION_TYPE": "U", "NORAD_CAT_ID": 33867, "ELEMENT_SET_NO": 999, "REV_AT_EPOCH": 89484, "BSTAR": 0.0092293359, "MEAN_MOTION_DOT": 0.00975243, "MEAN_MOTION_DDOT": 0}, "tle": {"line1": "1 33867U 97051AL  25345.03205426  .00975243  00000+0  92293-2 0  9996", "line2": "2 33867  86.3640 350.9911 0013205  90.6503 269.6278 15.64357870894847"}}, "geometry": {"type": "Point", "coordinates": [172.36888948539146, -24.502791049893275]}}, {"type": "Feature", "properties": {"norad_id": 33870, "name": "IRIDIUM 33 DEB", "group": "iridium-33-debris", "lat": 52.618797655133406, "lon": 63.51792934834055, "alt_km": 743.945255061697, "timestamp": "2025-12-11T13:55:02.550663+00:00", "meta": {"OBJECT_NAME": "IRIDIUM 33 DEB", "OBJECT_ID": "1997-051AP", "EPOCH": "2025-12-11T05:37:02.620704", "MEAN_MOTION": 14.45838487, "ECCENTRICITY": 0.00213236, "INCLINATION": 86.3744, "RA_OF_ASC_NODE": 58.9059, "ARG_OF_PERICENTER": 182.8727, "MEAN_ANOMALY": 231.2371, "EPHEMERIS_TYPE": 0, "CLASSIFICATION_TYPE": "U", "NORAD_CAT_ID": 33870, "ELEMENT_SET_NO": 999, "REV_AT_EPOCH": 88115, "BSTAR": 0.0012319282, "MEAN_MOTION_DOT": 4.403e-05, "MEAN_MOTION_DDOT": 0}, "tle": {"line1": "1 33870U 97051AP  25345.23405811  .00004403  00000+0  12319-2 0  9994", "line2": "2 33870  86.3744  58.9059 0021323 182.8727 231.2371 14.45838487881151"}}, "geometry": {"type": "Point", "coordinates": [63.51792934834055, 52.618797655133406]}}, {"type": "Feature", "properties": {"norad_id": 33881, "name": "IRIDIUM 33 DEB", "group": "iridium-33-debris", "lat": -57.09441241686263, "lon": -67.14901590051814, "alt_km": 688.9074933513357, "timestamp": "2025-12-11T13:55:02.550678+00:00", "meta": {"OBJECT_NAME": "IRIDIUM 33 DEB", "OBJECT_ID": "1997-051BA", "EPOCH": "2025-12-10T19:23:39.783840", "MEAN_MOTION": 14.56512734, "ECCENTRICITY": 0.00614461, "INCLINATION": 86.3863, "RA_OF_ASC_NODE": 107.5816, "ARG_OF_PERICENTER": 180.8783, "MEAN_ANOMALY": 331.4545, "EPHEMERIS_TYPE": 0, "CLASSIFICATION_TYPE": "U", "NORAD_CAT_ID": 33881, "ELEMENT_SET_NO": 999, "REV_AT_EPOCH": 87472, "BSTAR": 0.0031554403, "MEAN_MOTION_DOT": 0.00014437, "MEAN_MOTION_DDOT": 0}, "tle": {"line1": "1 33881U 97051BA  25344.80809935  .00014437  00000+0  31554-2 0  9993", "line2": "2 33881  86.3863 107.5816 0061446 180.8783 331.4545 14.56512734874724"}}, "geometry": {"type": "Point", "coordinates": [-67.14901590051814, -57.09441241686263]}}, {"type": "Feature", "properties": {"norad_id": 33884, "name": "IRIDIUM 33 DEB", "group": "iridium-33-debris", "lat": 82.61568089497649, "lon": 161.00881928791634, "alt_km": 634.4455924510521, "timestamp": "2025-12-11T13:55:02.550693+00:00", "meta": {"OBJECT_NAME": "IRIDIUM 33 DEB", "OBJECT_ID": "1997-051BD", "EPOCH": "2025-12-11T02:20:45.458304", "MEAN_MOTION": 14.77374532, "ECCENTRICITY": 0.00098702, "INCLINATION": 86.3697, "RA_OF_ASC_NODE": 10.5592, "ARG_OF_PERICENTER": 330.1286, "MEAN_ANOMALY": 83.5788, "EPHEMERIS_TYPE": 0, "CLASSIFICATION_TYPE": "U", "NORAD_CAT_ID": 33884, "ELEMENT_SET_NO": 999, "REV_AT_EPOCH": 88823, "BSTAR": 0.0021763736, "MEAN_MOTION_DOT": 0.00015524, "MEAN_MOTION_DDOT": 0}, "tle": {"line1": "1 33884U 97051BD  25345.09774836  .00015524  00000+0  21764-2 0  9999", "line2": "2 33884  86.3697  10.5592 0009870 330.1286  83.5788 14.77374532888237"}}, "geometry": {"type": "Point", "coordinates": [161.00881928791634, 82.61568089497649]}}, {"type": "Feature", "properties": {"norad_id": 33886, "name": "IRIDIUM 33 DEB", "group": "iridium-33-debris", "lat": -14.504652153173852, "lon": -111.34538909082059, "alt_km": 770.9400236865367, "timestamp": "2025-12-11T13:55:02.550704+00:00", "meta": {"OBJECT_NAME": "IRIDIUM 33 DEB", "OBJECT_ID": "1997-051BF", "EPOCH": "2025-12-11T06:35:52.228320", "MEAN_MOTION": 14.36049785, "ECCENTRICITY": 0.00122162, "INCLINATION": 86.3829, "RA_OF_ASC_NODE": 67.8453, "ARG_OF_PERICENTER": 247.5177, "MEAN_ANOMALY": 171.3235, "EPHEMERIS_TYPE": 0, "CLASSIFICATION_TYPE": "U", "NORAD_CAT_ID": 33886, "ELEMENT_SET_NO": 999, "REV_AT_EPOCH": 88031, "BSTAR": 0.00033770885, "MEAN_MOTION_DOT": 1.002e-05, "MEAN_MOTION_DDOT": 0}, "tle": {"line1": "1 33886U 97051BF  25345.27491005  .00001002  00000+0  33771-3 0  9993", "line2": "2 33886  86.3829  67.8453 0012216 247.5177 171.3235 14.36049785880313"}}, "geometry": {"type": "Point", "coordinates": [-111.34538909082059, -14.504652153173852]}}, {"type": "Feature", "properties": {"norad_id": 33887, "name": "IRIDIUM 33 DEB", "group": "iridium-33-debris", "lat": 53.916810935237834, "lon": 178.80432484486502, "alt_km": 763.5782581920648, "timestamp": "2025-12-11T13:55:02.550714+00:00", "meta": {"OBJECT_NAME": "IRIDIUM 33 DEB", "OBJECT_ID": "1997-051BG", "EPOCH": "2025-12-11T01:55:48.688896", "MEAN_MOTION": 14.37218579, "ECCENTRICITY": 0.0004312, "INCLINATION": 86.3045, "RA_OF_ASC_NODE": 4.1074, "ARG_OF_PERICENTER": 234.0797, "MEAN_ANOMALY": 189.2272, "EPHEMERIS_TYPE": 0, "CLASSIFICATION_TYPE": "U", "NORAD_CAT_ID": 33887, "ELEMENT_SET_NO": 999, "REV_AT_EPOCH": 88141, "BSTAR": 0.00021085031, "MEAN_MOTION_DOT": 6.47e-06, "MEAN_MOTION_DDOT": 0}, "tle": {"line1": "1 33887U 97051BG  25345.08042464  .00000647  00000+0  21085-3 0  9993", "line2": "2 33887  86.3045   4.1074 0004312 234.0797 189.2272 14.37218579881415"}}, "geometry": {"type": "Point", "coordinates": [178.80432484486502, 53.916810935237834]}}, {"type": "Feature", "properties": {"norad_id": 33953, "name": "IRIDIUM 33 DEB", "group": "iridium-33-debris", "lat": -84.64136684854624, "lon": -83.32935305350192, "alt_km": 728.0640248965865, "timestamp": "2025-12-11T13:55:02.550725+00:00", "meta": {"OBJECT_NAME": "IRIDIUM 33 DEB", "OBJECT_ID": "1997-051BN", "EPOCH": "2025-12-11T06:24:40.427712", "MEAN_MOTION": 14.5530364, "ECCENTRICITY": 0.00184191, "INCLINATION": 86.3841, "RA_OF_ASC_NODE": 54.4182, "ARG_OF_PERICENTER": 107.3103, "MEAN_ANOMALY": 321.1465, "EPHEMERIS_TYPE": 0, "CLASSIFICATION_TYPE": "U", "NORAD_CAT_ID": 33953, "ELEMENT_SET_NO": 999, "REV_AT_EPOCH": 88282, "BSTAR": 0.0022622575, "MEAN_MOTION_DOT": 9.851e-05, "MEAN_MOTION_DDOT": 0}, "tle": {"line1": "1 33953U 97051BN  25345.26713458  .00009851  00000+0  22623-2 0  9999", "line2": "2 33953  86.3841  54.4182 0018419 107.3103 321.1465 14.55303640882828"}}, "geometry": {"type": "Point", "coordinates": [-83.32935305350192, -84.64136684854624]}}, {"type": "Feature", "properties": {"norad_id": 33960, "name": "IRIDIUM 33 DEB", "group": "iridium-33-debris", "lat": -54.17153027876672, "lon": -75.14656832923272, "alt_km": 622.806065961945, "timestamp": "2025-12-11T13:55:02.550736+00:00", "meta": {"OBJECT_NAME": "IRIDIUM 33 DEB", "OBJECT_ID": "1997-051BV", "EPOCH": "2025-12-11T06:38:47.476896", "MEAN_MOTION": 14.85069829, "ECCENTRICITY": 0.00074311, "INCLINATION": 86.2531, "RA_OF_ASC_NODE": 290.2041, "ARG_OF_PERICENTER": 64.6127, "MEAN_ANOMALY": 62.5918, "EPHEMERIS_TYPE": 0, "CLASSIFICATION_TYPE": "U", "NORAD_CAT_ID": 33960, "ELEMENT_SET_NO": 999, "REV_AT_EPOCH": 88845, "BSTAR": 0.0063978217, "MEAN_MOTION_DOT": 0.00055065, "MEAN_MOTION_DDOT": 0}, "tle": {"line1": "1 33960U 97051BV  25345.27693839  .00055065  00000+0  63978-2 0  9994", "line2": "2 33960  86.2531 290.2041 0007431  64.6127  62.5918 14.85069829888453"}}, "geometry": {"type": "Point", "coordinates": [-75.14656832923272, -54.17153027876672]}}, {"type": "Feature", "properties": {"norad_id": 33966, "name": "IRIDIUM 33 DEB", "group": "iridium-33-debris", "lat": 55.58355680082838, "lon": 51.80860471429668, "alt_km": 725.5075667166893, "timestamp": "2025-12-11T13:55:02.550747+00:00", "meta": {"OBJECT_NAME": "IRIDIUM 33 DEB", "OBJECT_ID": "1997-051CB", "EPOCH": "2025-12-11T05:39:53.110368", "MEAN_MOTION": 14.49584048, "ECCENTRICITY": 0.00072323, "INCLINATION": 86.3922, "RA_OF_ASC_NODE": 46.6724, "ARG_OF_PERICENTER": 193.2302, "MEAN_ANOMALY": 229.3577, "EPHEMERIS_TYPE": 0, "CLASSIFICATION_TYPE": "U", "NORAD_CAT_ID": 33966, "ELEMENT_SET_NO": 999, "REV_AT_EPOCH": 88420, "BSTAR": 0.00082309869, "MEAN_MOTION_DOT": 3.179e-05, "MEAN_MOTION_DDOT": 0}, "tle": {"line1": "1 33966U 97051CB  25345.23603137  .00003179  00000+0  82310-3 0  9999", "line2": "2 33966  86.3922  46.6724 0007232 193.2302 229.3577 14.49584048884206"}}, "geometry": {"type": "Point", "coordinates": [51.80860471429668, 55.58355680082838]}}, {"type": "Feature", "properties": {"norad_id": 34071, "name": "IRIDIUM 33 DEB", "group": "iridium-33-debris", "lat": 56.94504222276119, "lon": -167.30312512745743, "alt_km": 715.1795071982779, "timestamp": "2025-12-11T13:55:02.550761+00:00", "meta": {"OBJECT_NAME": "IRIDIUM 33 DEB", "OBJECT_ID": "1997-051CE", "EPOCH": "2025-12-11T03:24:43.710048", "MEAN_MOTION": 14.49452844, "ECCENTRICITY": 0.00099027, "INCLINATION": 86.3458, "RA_OF_ASC_NODE": 18.5226, "ARG_OF_PERICENTER": 111.9344, "MEAN_ANOMALY": 248.2914, "EPHEMERIS_TYPE": 0, "CLASSIFICATION_TYPE": "U", "NORAD_CAT_ID": 34071, "ELEMENT_SET_NO": 999, "REV_AT_EPOCH": 88311, "BSTAR": 0.00086512224, "MEAN_MOTION_DOT": 3.332e-05, "MEAN_MOTION_DDOT": 0}, "tle": {"line1": "1 34071U 97051CE  25345.14217257  .00003332  00000+0  86512-3 0  9990", "line2": "2 34071  86.3458  18.5226 0009902 111.9344 248.2914 14.49452844883114"}}, "geometry": {"type": "Point", "coordinates": [-167.30312512745743, 56.94504222276119]}}]}